     3.00           N                   E                   RINEX VERSION / TYPE
BRD_USR             ESA                 20190107 001726  UTCPGM / RUN BY / DATE
 GAL   5.1250E+01  3.1250E-02 -4.3335E-03  0.0000E+00       IONOSPHERIC CORR
GAUT  0.0000000000E+00 0.000000000E+00      0 2035 GSTB   0 TIME SYSTEM CORR
GPGA -2.1245796233E-09 4.440892099E-15  86400 2035 GSTB   0 TIME SYSTEM CORR
                                                            END OF HEADER
E27 2019 01 06 22 00 00 5.549603374675E-04-7.673861546209E-12 0.000000000000E+00
     4.000000000000E+00 1.224687500000E+02 2.342954736326E-09-3.139197318340E+00
     5.811452865601E-06 2.073433715850E-04 1.142919063568E-05 5.440639400482E+03
     7.920000000000E+04-3.166496753693E-08-2.949243987416E+00-1.098960638046E-07
     9.898782328131E-01 1.111562500000E+02-9.289269008940E-01-4.973421448680E-09
    -1.432202514126E-10 2.580000000000E+02 2.035000000000E+03 0.000000000000E+00
     3.120000000000E+00 0.000000000000E+00-2.793967723846E-09 0.000000000000E+00
     7.990000000000E+04 0.000000000000E+00 0.000000000000E+00 0.000000000000E+00
E30 2019 01 06 22 00 00 5.209279363044E-03-3.041122909053E-11 0.000000000000E+00
     4.000000000000E+00 1.272812500000E+02 2.447959110180E-09 2.481750366224E+00
     5.951151251793E-06 2.953280927613E-04 1.196749508381E-05 5.440625238419E+03
     7.920000000000E+04-2.980232238770E-08-2.943238297620E+00-1.490116119385E-08
     9.878932490106E-01 9.640625000000E+01 4.987337232900E-01-5.090212027763E-09
    -1.903650723265E-10 2.580000000000E+02 2.035000000000E+03 0.000000000000E+00
     3.120000000000E+00 0.000000000000E+00-3.026798367500E-09 0.000000000000E+00
     7.990000000000E+04 0.000000000000E+00 0.000000000000E+00 0.000000000000E+00
E33 2019 01 06 22 00 00 8.478728123009E-04 1.421085471520E-14 0.000000000000E+00
     4.000000000000E+00-1.701875000000E+02 2.794759270084E-09 3.994861789457E-02
    -7.819384336472E-06 3.580609336495E-04 1.776963472366E-06 5.440598564148E+03
     7.920000000000E+04-4.470348358154E-08-8.663765395347E-01 1.862645149231E-09
     9.851864336323E-01 3.158125000000E+02-1.508610943015E+00-5.727381425568E-09
    -4.110885520597E-10 2.580000000000E+02 2.035000000000E+03 0.000000000000E+00
     3.120000000000E+00 5.600000000000E+01-8.149072527885E-09 0.000000000000E+00
     7.990000000000E+04 0.000000000000E+00 0.000000000000E+00 0.000000000000E+00
E05 2019 01 06 21 10 00 1.295326510444E-04-6.522782314278E-12 0.000000000000E+00
     1.270000000000E+02 2.809375000000E+01 3.572648815163E-09-1.580401975640E+00
     1.383945345879E-06 1.431340351701E-04 5.953013896942E-06 5.440608415604E+03
     7.620000000000E+04 1.676380634308E-08 1.244133313066E+00-3.725290298462E-08
     9.522338059831E-01 2.091562500000E+02 1.569579388150E+00-5.642377884830E-09
     5.885959459551E-10 2.580000000000E+02 2.035000000000E+03 0.000000000000E+00
     3.120000000000E+00 0.000000000000E+00-1.396983861923E-09 0.000000000000E+00
     7.995000000000E+04 0.000000000000E+00 0.000000000000E+00 0.000000000000E+00
E01 2019 01 06 22 00 00-5.152509547770E-04-8.157030606526E-12 0.000000000000E+00
     4.000000000000E+00 1.497812500000E+02 2.353669468352E-09 1.467759539356E+00
     6.970018148422E-06 1.164794666693E-04 1.191534101963E-05 5.440628593445E+03
     7.920000000000E+04 3.725290298462E-09-2.946652504110E+00-5.587935447693E-08
     9.903417320740E-01 9.693750000000E+01-8.412180146440E-01-5.040924260444E-09
    -2.610823036973E-10 5.210000000000E+02 2.035000000000E+03 0.000000000000E+00
     3.120000000000E+00 0.000000000000E+00-4.656612873077E-09-5.355104804039E-09
     8.003500000000E+04 0.000000000000E+00 0.000000000000E+00 0.000000000000E+00
E09 2019 01 06 21 20 00 6.565992662217E-03-1.126920778916E-11 0.000000000000E+00
     0.000000000000E+00 2.562500000000E+01 3.509074738477E-09 7.224755288857E-01
     1.095235347748E-06 2.455940702930E-04 6.098300218582E-06 5.440607975006E+03
     7.680000000000E+04 3.352761268616E-08 1.235506722146E+00-2.048909664154E-08
     9.582376759083E-01 2.100625000000E+02 1.247753580345E-01-5.593804432979E-09
     5.878816304868E-10 5.210000000000E+02 2.035000000000E+03 0.000000000000E+00
     3.120000000000E+00 0.000000000000E+00-3.259629011154E-09-3.958120942116E-09
     8.006500000000E+04 0.000000000000E+00 0.000000000000E+00 0.000000000000E+00
E30 2019 01 06 22 00 00 5.209279188421E-03-3.041122909053E-11 0.000000000000E+00
     4.000000000000E+00 1.272812500000E+02 2.447959110180E-09 2.481750366224E+00
     5.951151251793E-06 2.953280927613E-04 1.196749508381E-05 5.440625238419E+03
     7.920000000000E+04-2.980232238770E-08-2.943238297620E+00-1.490116119385E-08
     9.878932490106E-01 9.640625000000E+01 4.987337232900E-01-5.090212027763E-09
    -1.903650723265E-10 5.210000000000E+02 2.035000000000E+03 0.000000000000E+00
     3.120000000000E+00 0.000000000000E+00-3.026798367500E-09-3.492459654808E-09
     8.006500000000E+04 0.000000000000E+00 0.000000000000E+00 0.000000000000E+00
E09 2019 01 06 21 20 00 6.565992720425E-03-1.126920778916E-11 0.000000000000E+00
     0.000000000000E+00 2.562500000000E+01 3.509074738477E-09 7.224755288857E-01
     1.095235347748E-06 2.455940702930E-04 6.098300218582E-06 5.440607975006E+03
     7.680000000000E+04 3.352761268616E-08 1.235506722146E+00-2.048909664154E-08
     9.582376759083E-01 2.100625000000E+02 1.247753580345E-01-5.593804432979E-09
     5.878816304868E-10 2.580000000000E+02 2.035000000000E+03 0.000000000000E+00
     3.120000000000E+00 0.000000000000E+00-3.259629011154E-09 0.000000000000E+00
     8.010000000000E+04 0.000000000000E+00 0.000000000000E+00 0.000000000000E+00
E30 2019 01 06 22 00 00 5.209279363044E-03-3.041122909053E-11 0.000000000000E+00
     4.000000000000E+00 1.272812500000E+02 2.447959110180E-09 2.481750366224E+00
     5.951151251793E-06 2.953280927613E-04 1.196749508381E-05 5.440625238419E+03
     7.920000000000E+04-2.980232238770E-08-2.943238297620E+00-1.490116119385E-08
     9.878932490106E-01 9.640625000000E+01 4.987337232900E-01-5.090212027763E-09
    -1.903650723265E-10 2.580000000000E+02 2.035000000000E+03 0.000000000000E+00
     3.120000000000E+00 0.000000000000E+00-3.026798367500E-09 0.000000000000E+00
     8.010000000000E+04 0.000000000000E+00 0.000000000000E+00 0.000000000000E+00
E01 2019 01 06 22 00 00-5.152509547770E-04-8.157030606526E-12 0.000000000000E+00
     4.000000000000E+00 1.497812500000E+02 2.353669468352E-09 1.467759539356E+00
     6.970018148422E-06 1.164794666693E-04 1.191534101963E-05 5.440628593445E+03
     7.920000000000E+04 3.725290298462E-09-2.946652504110E+00-5.587935447693E-08
     9.903417320740E-01 9.693750000000E+01-8.412180146440E-01-5.040924260444E-09
    -2.610823036973E-10 5.210000000000E+02 2.035000000000E+03 0.000000000000E+00
     3.120000000000E+00 0.000000000000E+00-4.656612873077E-09-5.355104804039E-09
     8.015500000000E+04 0.000000000000E+00 0.000000000000E+00 0.000000000000E+00
E01 2019 01 06 22 00 00-5.152506055310E-04-8.157030606526E-12 0.000000000000E+00
     4.000000000000E+00 1.497812500000E+02 2.353669468352E-09 1.467759539356E+00
     6.970018148422E-06 1.164794666693E-04 1.191534101963E-05 5.440628593445E+03
     7.920000000000E+04 3.725290298462E-09-2.946652504110E+00-5.587935447693E-08
     9.903417320740E-01 9.693750000000E+01-8.412180146440E-01-5.040924260444E-09
    -2.610823036973E-10 2.580000000000E+02 2.035000000000E+03 0.000000000000E+00
     3.120000000000E+00 0.000000000000E+00-4.656612873077E-09 0.000000000000E+00
     8.025000000000E+04 0.000000000000E+00 0.000000000000E+00 0.000000000000E+00
E26 2019 01 06 21 20 00 5.049378203694E-03-4.339995030023E-11 0.000000000000E+00
     0.000000000000E+00-1.673437500000E+02 2.935479417358E-09 1.133167432103E+00
    -7.821246981621E-06 3.261181991547E-04 1.916661858559E-06 5.440607942581E+03
     7.680000000000E+04-2.421438694000E-08-8.573921042226E-01-3.725290298462E-09
     9.783087086103E-01 3.096562500000E+02-2.107538935159E+00-5.770954669140E-09
    -4.010881355022E-10 2.580000000000E+02 2.035000000000E+03 0.000000000000E+00
     3.120000000000E+00 0.000000000000E+00 1.164153218269E-09 0.000000000000E+00
     8.035000000000E+04 0.000000000000E+00 0.000000000000E+00 0.000000000000E+00
E26 2019 01 06 21 20 00 5.049378785770E-03-4.338573944551E-11 0.000000000000E+00
     0.000000000000E+00-1.673437500000E+02 2.935479417358E-09 1.133167432103E+00
    -7.821246981621E-06 3.261181991547E-04 1.916661858559E-06 5.440607942581E+03
     7.680000000000E+04-2.421438694000E-08-8.573921042226E-01-3.725290298462E-09
     9.783087086103E-01 3.096562500000E+02-2.107538935159E+00-5.770954669140E-09
    -4.010881355022E-10 5.210000000000E+02 2.035000000000E+03 0.000000000000E+00
     3.120000000000E+00 0.000000000000E+00 1.164153218269E-09 1.164153218269E-09
     8.039500000000E+04 0.000000000000E+00 0.000000000000E+00 0.000000000000E+00
E02 2019 01 06 21 30 00 4.225113661960E-05 1.591615728103E-12 0.000000000000E+00
     1.000000000000E+00 1.162500000000E+02 2.407243128482E-09-2.467905053511E+00
     5.384907126427E-06 2.672468544915E-04 1.231208443642E-05 5.440624645233E+03
     7.740000000000E+04-2.421438694000E-08-2.946676054165E+00-5.587935447693E-09
     9.903506310047E-01 8.862500000000E+01-2.720155523453E-01-5.057353516217E-09
    -2.267951612145E-10 5.210000000000E+02 2.035000000000E+03 0.000000000000E+00
     3.120000000000E+00 0.000000000000E+00-5.820766091347E-09-7.217749953270E-09
     8.042500000000E+04 0.000000000000E+00 0.000000000000E+00 0.000000000000E+00
